SHIYAN-24C 02           
1 58651U 23206B   26068.89175597  .00002770  00000+0  23935-3 0  9991
2 58651  97.3985  41.8071 0003465  80.6641 279.4974 14.97980163120443
STARLINK-34461          
1 64418U 25129G   26068.42785764 -.00000699  00000+0 -50790-4 0  9997
2 64418  70.0007  75.2940 0003089 266.5562  93.5244 14.98331937 41244
